[{"OBJECT_NAME":"DONGPO 08","OBJECT_ID":"2022-167E","EPOCH":"2026-03-09T22:57:52.742880","MEAN_MOTION":15.31542505,"ECCENTRICITY":0.00092155,"INCLINATION":97.6764,"RA_OF_ASC_NODE":233.3854,"ARG_OF_PERICENTER":153.9158,"MEAN_ANOMALY":206.2548,"EPHEMERIS_TYPE":0,"CLASSIFICATION_TYPE":"U","NORAD_CAT_ID":54686,"ELEMENT_SET_NO":999,"REV_AT_EPOCH":18012,"BSTAR":0.0004734784,"MEAN_MOTION_DOT":0.0001437,"MEAN_MOTION_DDOT":0},{"OBJECT_NAME":"STARLINK-35971","OBJECT_ID":"2025-283T","EPOCH":"2026-03-09T06:04:55.006752","MEAN_MOTION":15.30194115,"ECCENTRICITY":0.00011803,"INCLINATION":53.1604,"RA_OF_ASC_NODE":26.4589,"ARG_OF_PERICENTER":122.6449,"MEAN_ANOMALY":237.4666,"EPHEMERIS_TYPE":0,"CLASSIFICATION_TYPE":"U","NORAD_CAT_ID":66895,"ELEMENT_SET_NO":999,"REV_AT_EPOCH":1577,"BSTAR":0.00038082893,"MEAN_MOTION_DOT":0.00010934,"MEAN_MOTION_DDOT":0}]
